KAZEOSAT 1              
1 39731U 14024A   17346.39881910  .00000030  00000-0  22402-4 0  9991
2 39731  98.4063  62.9587 0001205  80.1224 280.0102 14.42013073190577
